OBJECT_NAME,OBJECT_ID,EPOCH,MEAN_MOTION,ECCENTRICITY,INCLINATION,RA_OF_ASC_NODE,ARG_OF_PERICENTER,MEAN_ANOMALY,EPHEMERIS_TYPE,CLASSIFICATION_TYPE,NORAD_CAT_ID,ELEMENT_SET_NO,REV_AT_EPOCH,BSTAR,MEAN_MOTION_DOT,MEAN_MOTION_DDOT
CUTE-1 (CO-55),2003-031E,2026-06-11T13:23:16.003104,14.24332340,.00091392,98.6735,171.1873,194.6488,165.4428,0,U,27844,999,19087,.12921213E-3,.255E-5,0
CUBESAT XI-IV (CO-57),2003-031J,2026-06-11T13:02:34.843776,14.23617902,.00086807,98.6768,170.8906,214.5229,145.5387,0,U,27848,999,19057,.11636506E-3,.221E-5,0
CUBESAT XI-V,2005-043F,2026-06-11T08:31:42.130272,14.72615440,.00132905,98.2977,317.8549,220.0353,139.9875,0,U,28895,999,10089,.18967865E-3,.1156E-4,0
CUTE-1.7+APD II (CO-65),2008-021C,2026-06-11T14:44:08.038752,15.09401750,.00102958,97.8272,143.9165,55.6986,304.5215,0,U,32785,999,98435,.31585816E-3,.4987E-4,0
CANX-2,2008-021H,2026-06-11T12:08:55.336128,15.05571373,.00116897,97.8618,142.1731,67.3841,292.8620,0,U,32790,999,98395,.25025581E-3,.3546E-4,0
SEEDS II (CO-66),2008-021J,2026-06-11T06:13:53.331456,15.32546772,.00019675,97.7517,159.8749,23.1856,336.9473,0,U,32791,999,98638,.48819833E-3,.15274E-3,0
SWISSCUBE,2009-051B,2026-06-11T05:11:30.525792,14.62470076,.00056291,98.4041,70.0006,224.4191,135.6559,0,U,35932,999,88828,.16843955E-3,.804E-5,0
BEESAT-1,2009-051C,2026-06-11T05:20:37.623552,14.61710634,.0003964,98.3971,69.6549,240.4948,119.5857,0,U,35933,999,88831,.14238906E-3,.66E-5,0
ITUPSAT1,2009-051E,2026-06-11T04:59:59.441568,14.60431670,.00061318,98.4055,68.8386,256.4621,103.5895,0,U,35935,999,88786,.13682513E-3,.614E-5,0
TISAT 1,2010-035E,2026-06-11T13:31:57.078048,15.31496134,.00005815,98.0702,108.6144,172.5872,187.5376,0,U,36799,999,86684,.6193939E-3,.18779E-3,0
AEROCUBE 4.5A,2012-048K,2026-06-11T01:48:41.495328,15.91322494,.00196148,64.6260,49.1927,217.7804,142.1981,0,U,38767,999,37168,.10426129E-2,.34078E-2,.50566676E-4
STRAND-1,2013-009E,2026-06-11T11:40:12.874368,14.37160014,.00075038,98.3921,342.8611,244.6927,115.3483,0,U,39090,999,69624,.10128651E-3,.258E-5,0
BRITE-AUSTRIA,2013-009F,2026-06-11T10:14:54.820032,14.36539758,.00089923,98.3993,342.0055,255.9460,104.0727,0,U,39091,999,69622,.62670036E-4,.141E-5,0
NEE-01 PEGASO,2013-018B,2026-06-11T08:53:19.824576,14.93633706,.00126441,98.1214,306.3290,177.4473,182.6812,0,U,39151,999,70983,.17424026E-3,.1781E-4,0
POPACS 2,2013-055E,2026-06-10T06:20:54.981600,14.91044989,.0417121,80.9903,152.1156,216.0318,141.2122,0,U,39269,999,66218,.20956E-3,.12321E-3,0
POPACS 3,2013-055F,2026-06-11T14:55:51.168000,14.56023188,.05526517,81.0021,235.2194,86.9304,279.4954,0,U,39270,999,63774,.23842077E-3,.10143E-3,0
ZACUBE-1 (TSHEPISOSAT),2013-066B,2026-06-11T11:23:51.095616,15.01152948,.00402103,97.8085,124.7807,267.7109,91.9510,0,U,39417,999,67987,.21783571E-3,.2775E-4,0
WNISAT-1,2013-066H,2026-06-11T15:39:25.243200,14.58053496,.01617543,97.7195,312.2017,249.1585,109.2228,0,U,39423,999,66592,.13352212E-3,.684E-5,0
TRITON-1,2013-066M,2026-06-11T14:57:03.432960,14.81684355,.00883744,97.8248,72.5563,252.3489,106.8059,0,U,39427,999,67326,.1410167E-3,.1129E-4,0
GOMX-1,2013-066Q,2026-06-11T14:27:15.852384,14.69439770,.01301768,97.6494,3.4179,95.2729,266.3347,0,U,39430,999,66909,.29765208E-3,.1957E-4,0
CUBEBUG-2 (LO-74),2013-066AA,2026-06-11T07:15:18.483264,14.93713369,.00589328,97.8900,111.2555,48.0727,312.5496,0,U,39440,999,67611,.29202653E-3,.3136E-4,0
NEE-02 KRYSAOR,2013-066AB,2026-06-11T13:19:37.329888,14.86593941,.00677453,97.8889,101.8103,88.2328,272.6645,0,U,39441,999,67536,.21291956E-3,.191E-4,0
FUNCUBE-1 (AO-73),2013-066AE,2026-06-11T13:18:21.085344,15.09420113,.00351446,97.8262,133.8825,220.5848,139.2760,0,U,39444,999,67881,.34659464E-3,.5554E-4,0
UWE-3,2013-066AG,2026-06-11T09:36:40.667616,14.96977019,.00484872,97.8684,118.4353,340.4805,19.4558,0,U,39446,999,67671,.3092895E-3,.3579E-4,0
BRITE-CA1 (TORONTO),2014-033L,2026-06-11T07:55:49.911456,14.72668490,.00773521,97.9731,291.3666,296.0994,63.2268,0,U,40020,999,64135,.93436829E-4,.569E-5,0
DUCHIFAT-1,2014-033M,2026-06-11T03:15:03.447648,15.63383077,.00040908,98.0470,220.4508,126.2071,233.9565,0,U,40021,999,65480,.10060624E-2,.93384E-3,0
NANOSATC-BR1,2014-033Q,2026-06-11T14:03:49.256928,15.31278276,.00038814,98.0730,194.4780,177.9042,182.2215,0,U,40024,999,65312,.52625592E-3,.15831E-3,0
QB50P1,2014-033R,2026-06-11T13:08:58.559136,15.18175616,.00073017,98.0966,173.2987,237.3952,122.6576,0,U,40025,999,65217,.35252177E-3,.7133E-4,0
QB50P2,2014-033Y,2026-06-11T13:15:38.248992,15.15086820,.0007419,98.0748,159.0820,181.7968,178.3238,0,U,40032,999,65181,.34698127E-3,.6425E-4,0
PERSEUS-M2,2014-033AD,2026-06-11T13:50:22.497792,14.95492735,.00112725,97.9958,113.0031,325.4766,34.5721,0,U,40037,999,64994,.60435343E-4,.608E-5,0
