CUTE-1 (CO-55)          
1 27844U 03031E   26162.55782411  .00000255  00000+0  12921-3 0  9991
2 27844  98.6735 171.1873 0009139 194.6488 165.4428 14.24332340190876
CUBESAT XI-IV (CO-57)   
1 27848U 03031J   26162.54345884  .00000221  00000+0  11637-3 0  9999
2 27848  98.6768 170.8906 0008680 214.5229 145.5387 14.23617902190573
CUBESAT XI-V            
1 28895U 05043F   26162.35534873  .00001156  00000+0  18968-3 0  9996
2 28895  98.2977 317.8549 0013290 220.0353 139.9875 14.72615440100897
CUTE-1.7+APD II (CO-65) 
1 32785U 08021C   26162.61398193  .00004987  00000+0  31586-3 0  9996
2 32785  97.8272 143.9165 0010295  55.6986 304.5215 15.09401750984358
CANX-2                  
1 32790U 08021H   26162.50619602  .00003546  00000+0  25026-3 0  9993
2 32790  97.8618 142.1731 0011689  67.3841 292.8620 15.05571373983955
SEEDS II (CO-66)        
1 32791U 08021J   26162.25964504  .00015274  00000+0  48820-3 0  9998
2 32791  97.7517 159.8749 0001967  23.1856 336.9473 15.32546772986382
SWISSCUBE               
1 35932U 09051B   26162.21632553  .00000804  00000+0  16844-3 0  9998
2 35932  98.4041  70.0006 0005629 224.4191 135.6559 14.62470076888283
BEESAT-1                
1 35933U 09051C   26162.22265768  .00000660  00000+0  14239-3 0  9996
2 35933  98.3971  69.6549 0003964 240.4948 119.5857 14.61710634888311
ITUPSAT1                
1 35935U 09051E   26162.20832687  .00000614  00000+0  13683-3 0  9997
2 35935  98.4055  68.8386 0006131 256.4621 103.5895 14.60431670887864
TISAT 1                 
1 36799U 10035E   26162.56385507  .00018779  00000+0  61939-3 0  9991
2 36799  98.0702 108.6144 0000581 172.5872 187.5376 15.31496134866848
AEROCUBE 4.5A           
1 38767U 12048K   26162.07548027  .00340780  50567-4  10426-2 0  9990
2 38767  64.6260  49.1927 0019614 217.7804 142.1981 15.91322494371680
STRAND-1                
1 39090U 13009E   26162.48626012  .00000258  00000+0  10129-3 0  9990
2 39090  98.3921 342.8611 0007503 244.6927 115.3483 14.37160014696248
BRITE-AUSTRIA           
1 39091U 13009F   26162.42702338  .00000141  00000+0  62670-4 0  9991
2 39091  98.3993 342.0055 0008992 255.9460 104.0727 14.36539758696220
NEE-01 PEGASO           
1 39151U 13018B   26162.37036834  .00001781  00000+0  17424-3 0  9990
2 39151  98.1214 306.3290 0012644 177.4473 182.6812 14.93633706709836
POPACS 2                
1 39269U 13055E   26161.26452525  .00012321  00000+0  20956-3 0  9993
2 39269  80.9903 152.1156 0417121 216.0318 141.2122 14.91044989662183
POPACS 3                
1 39270U 13055F   26162.62212000  .00010143  00000+0  23842-3 0  9995
2 39270  81.0021 235.2194 0552651  86.9304 279.4954 14.56023188637740
ZACUBE-1 (TSHEPISOSAT)  
1 39417U 13066B   26162.47489694  .00002775  00000+0  21784-3 0  9993
2 39417  97.8085 124.7807 0040210 267.7109  91.9510 15.01152948679879
WNISAT-1                
1 39423U 13066H   26162.65237550  .00000684  00000+0  13352-3 0  9991
2 39423  97.7195 312.2017 0161754 249.1585 109.2228 14.58053496665922
TRITON-1                
1 39427U 13066M   26162.62295640  .00001129  00000+0  14102-3 0  9995
2 39427  97.8248  72.5563 0088374 252.3489 106.8059 14.81684355673264
GOMX-1                  
1 39430U 13066Q   26162.60226681  .00001957  00000+0  29765-3 0  9996
2 39430  97.6494   3.4179 0130176  95.2729 266.3347 14.69439770669097
CUBEBUG-2 (LO-74)       
1 39440U 13066AA  26162.30229726  .00003136  00000+0  29203-3 0  9995
2 39440  97.8900 111.2555 0058932  48.0727 312.5496 14.93713369676117
NEE-02 KRYSAOR          
1 39441U 13066AB  26162.55529317  .00001910  00000+0  21292-3 0  9990
2 39441  97.8889 101.8103 0067745  88.2328 272.6645 14.86593941675365
FUNCUBE-1 (AO-73)       
1 39444U 13066AE  26162.55441071  .00005554  00000+0  34659-3 0  9992
2 39444  97.8262 133.8825 0035144 220.5848 139.2760 15.09420113678810
UWE-3                   
1 39446U 13066AG  26162.40047069  .00003579  00000+0  30929-3 0  9998
2 39446  97.8684 118.4353 0048487 340.4805  19.4558 14.96977019676712
BRITE-CA1 (TORONTO)     
1 40020U 14033L   26162.33043879  .00000569  00000+0  93437-4 0  9990
2 40020  97.9731 291.3666 0077352 296.0994  63.2268 14.72668490641353
DUCHIFAT-1              
1 40021U 14033M   26162.13545657  .00093384  00000+0  10061-2 0  9997
2 40021  98.0470 220.4508 0004090 126.2071 233.9565 15.63383077654809
NANOSATC-BR1            
1 40024U 14033Q   26162.58598677  .00015831  00000+0  52626-3 0  9994
2 40024  98.0730 194.4780 0003881 177.9042 182.2215 15.31278276653122
QB50P1                  
1 40025U 14033R   26162.54789999  .00007133  00000+0  35252-3 0  9992
2 40025  98.0966 173.2987 0007301 237.3952 122.6576 15.18175616652171
QB50P2                  
1 40032U 14033Y   26162.55252603  .00006425  00000+0  34698-3 0  9994
2 40032  98.0748 159.0820 0007419 181.7968 178.3238 15.15086820651812
PERSEUS-M2              
1 40037U 14033AD  26162.57664928  .00000608  00000+0  60435-4 0  9994
2 40037  97.9958 113.0031 0011272 325.4766  34.5721 14.95492735649941
